[{"OBJECT_NAME":"STARLINK-2645","OBJECT_ID":"2021-040S","EPOCH":"2026-03-09T12:20:07.249920","MEAN_MOTION":15.30211266,"ECCENTRICITY":0.00010807,"INCLINATION":53.1606,"RA_OF_ASC_NODE":178.9451,"ARG_OF_PERICENTER":69.1744,"MEAN_ANOMALY":290.9373,"EPHEMERIS_TYPE":0,"CLASSIFICATION_TYPE":"U","NORAD_CAT_ID":48444,"ELEMENT_SET_NO":999,"REV_AT_EPOCH":26665,"BSTAR":0.00024115912,"MEAN_MOTION_DOT":6.792e-5,"MEAN_MOTION_DDOT":0},{"OBJECT_NAME":"OBJECT V","OBJECT_ID":"2023-085V","EPOCH":"2026-03-09T21:44:00.165408","MEAN_MOTION":15.30745852,"ECCENTRICITY":0.00069081,"INCLINATION":97.4843,"RA_OF_ASC_NODE":179.3833,"ARG_OF_PERICENTER":71.0503,"MEAN_ANOMALY":289.1485,"EPHEMERIS_TYPE":0,"CLASSIFICATION_TYPE":"U","NORAD_CAT_ID":57023,"ELEMENT_SET_NO":999,"REV_AT_EPOCH":15149,"BSTAR":0.00067780507,"MEAN_MOTION_DOT":0.00020109,"MEAN_MOTION_DDOT":0}]
